STARLINK-31859          
1 59848U 24097P   26068.53918534 -.00000828  00000+0 -20568-4 0  9990
2 59848  43.0029 268.2948 0001242 243.0157 117.0568 15.27571299101978
YAOGAN-43 01D           
1 60461U 24148D   26068.43560480  .00010676  00000+0  37766-3 0  9999
2 60461  35.0010  61.7102 0002556 326.2473  33.8080 15.28369377 87008
